STARLINK-5342           
1 56516U 23065P   25059.15504373  .00000021  00000+0  16639-4 0  9999
2 56516  43.0044  85.5706 0001369 262.1945  97.8741 15.02544929 99509
STARLINK-5345           
1 56517U 23065Q   25058.47583236 -.00000591  00000+0 -28699-4 0  9992
2 56517  43.0034  89.0734 0001202 274.3700  85.7005 15.02552415100184
STARLINK-5346           
1 56518U 23065R   25059.14616956  .00001190  00000+0  10318-3 0  9996
2 56518  43.0028  85.5044 0001181 258.4182 101.6527 15.02531878 99506
STARLINK-6313           
1 56519U 23065S   25059.13617640  .00000703  00000+0  67079-4 0  9993
2 56519  43.0017  85.4270 0001376 266.9711  93.0974 15.02539851 99502
STARLINK-6344           
1 56520U 23065T   25059.07635354 -.00001619  00000+0 -10474-3 0  9995
2 56520  43.0051  85.8415 0001295 271.1216  88.9478 15.02552325 99496
STARLINK-6333           
1 56521U 23065U   25059.04639548  .00000886  00000+0  80664-4 0  9994
2 56521  43.0043  85.6143 0001126 272.5973  87.4741 15.02533579 99499
STARLINK-6327           
1 56522U 23065V   25058.47250906  .00000501  00000+0  52167-4 0  9999
2 56522  43.0032  89.0511 0000857 252.9034 107.1715 15.02534049100188
STARLINK-6328           
1 56523U 23065W   25059.11730432  .00001223  00000+0  10561-3 0  9992
2 56523  43.0035  85.2890 0001111 271.0460  89.0255 15.02540779 99506
STARLINK-6323           
1 56524U 23065X   25059.12615811  .00006142  00000+0  46912-3 0  9991
2 56524  43.0037  85.3516 0000971 268.4022  91.6709 15.02554345 99509
STARLINK-6329           
1 56525U 23065Y   25059.11065141  .00001031  00000+0  91410-4 0  9992
2 56525  43.0024  85.2451 0001066 269.5128  90.5592 15.02536704 99505
STARLINK-6317           
1 56526U 23065Z   25058.45475411 -.00000412  00000+0 -15399-4 0  9990
2 56526  43.0040  88.9155 0001327 265.2801  94.7890 15.02534740100188
STARLINK-6335           
1 56527U 23065AA  25059.04528525  .00001306  00000+0  11174-3 0  9999
2 56527  43.0034  85.6070 0001262 278.0676  82.0024 15.02533272 99491
STARLINK-6337           
1 56528U 23065AB  25058.38272082  .00001100  00000+0  96471-4 0  9996
2 56528  43.0020  89.2323 0001014 273.0067  87.0659 15.02539397100173
STARLINK-6307           
1 56529U 23065AC  25059.10324630 -.00002567  00000+0 -17491-3 0  9999
2 56529  42.9975  73.0235 0001800 284.9667  75.0976 15.02554754 99646
STARLINK-6318           
1 56530U 23065AD  25059.02482656  .00001006  00000+0  89527-4 0  9990
2 56530  43.0035  60.2820 0000996 265.7116  94.3613 15.02529867 99780
STARLINK-6280           
1 56531U 23065AE  25059.03344366  .00001284  00000+0  11008-3 0  9993
2 56531  43.0030  73.3652 0001524 258.7100 101.3571 15.02535090 99638
STARLINK-6319           
1 56532U 23065AF  25058.37865943  .00000421  00000+0  46201-4 0  9995
2 56532  43.0015  77.0533 0000895 275.3781  84.6959 15.02538317100317
STARLINK-6310           
1 56533U 23065AG  25059.02678734  .00001776  00000+0  14652-3 0  9997
2 56533  43.0020  73.3152 0000789 273.3376  86.7376 15.02536131 99630
STARLINK-6308           
1 56534U 23065AH  25058.37533412  .00001668  00000+0  13849-3 0  9995
2 56534  43.0019  77.0269 0000673 268.3684  91.7082 15.02539183100315
STARLINK-6309           
1 56535U 23065AJ  25058.42797869  .00000687  00000+0  65901-4 0  9997
2 56535  42.9999 102.5919 0001322 269.3895  90.6796 15.02532892100022
STARLINK-6312           
1 56536U 23065AK  25059.15258232  .00001362  00000+0  11587-3 0  9996
2 56536  43.0017  98.5757 0000818 278.4572  81.6178 15.02527333 99353
STARLINK-6311           
1 56537U 23065AL  25059.08942475  .00002869  00000+0  22743-3 0  9997
2 56537  43.0051  98.9570 0001077 259.4176 100.6545 15.02528187 99343
STARLINK-6314           
1 56538U 23065AM  25058.75253961 -.00001637  00000+0 -10850-3 0  9996
2 56538  43.0037  74.6938 0000952 272.2146  87.8587 15.01754265100373
STARLINK-6135           
1 56539U 23065AN  25059.07944108  .00002444  00000+0  19594-3 0  9992
2 56539  43.0031  98.8857 0001189 264.7123  95.3583 15.02541174 99348
STARLINK-6136           
1 56540U 23065AP  25058.47780565  .00001160  00000+0  10089-3 0  9996
2 56540  43.0034 102.1136 0001115 260.7073  99.3643 15.02536823100036
STARLINK-6249           
1 56541U 23065AQ  25059.07720921  .00001551  00000+0  12983-3 0  9993
2 56541  43.0052  98.8634 0001185 263.5398  96.5309 15.02540446 99344
STARLINK-6266           
1 56542U 23065AR  25059.08276611  .00004774  00000+0  36816-3 0  9998
2 56542  43.0010  98.9044 0001166 275.1621  84.9088 15.02543606 99348
STARLINK-6228           
1 56543U 23065AS  25059.14665161  .00055769  00000+0  92603-3 0  9994
2 56543  43.0007  88.2465 0000704 249.8440 110.2345 15.51287483 99473
STARLINK-6226           
1 56544U 23065AT  25059.11964692 -.00002333  00000+0 -15437-3 0  9994
2 56544  42.9996  98.3257 0000354 221.5062 138.5754 15.03312286 99359
STARLINK-6086           
1 56545U 23065AU  25059.13258132 -.00003036  00000+0 -20960-3 0  9990
2 56545  43.0042  98.4162 0001087 260.0589 100.0131 15.02564280 99351
STARLINK-6187           
1 56546U 23065AV  25059.07388567  .00001182  00000+0  10254-3 0  9993
2 56546  43.0083  98.8461 0000768 279.1708  80.9047 15.02535713 99342
STARLINK-6291           
1 56547U 23065AW  25058.43855033  .00000115  00000+0  23223-4 0  9996
2 56547  43.0021 101.8162 0000983 267.1104  92.9626 15.03350871100030
STARLINK-6244           
1 56548U 23065AX  25059.13592606  .00001184  00000+0  10270-3 0  9993
2 56548  43.0028  98.4416 0000955 266.4237  93.6496 15.02529511 99352
STARLINK-6263           
1 56549U 23065AY  25059.12038583  .00001774  00000+0  14640-3 0  9992
2 56549  43.0024  98.3237 0001134 264.3126  95.7587 15.02533247 99358
STARLINK-6255           
1 56550U 23065AZ  25059.12926232 -.00001602  00000+0 -10349-3 0  9995
2 56550  43.0031  98.3898 0001174 267.8583  92.2125 15.02545840 99352
STARLINK-6199           
1 56551U 23065BA  25059.11594327  .00003414  00000+0  26772-3 0  9999
2 56551  43.0017  98.2896 0001163 273.3968  86.6741 15.02530251 99352
STARLINK-5802           
1 56552U 23065BB  25059.18908064  .00001243  00000+0  10712-3 0  9999
2 56552  43.0016  97.9777 0001093 268.8010  91.2707 15.02525351 99365
STARLINK-6074           
1 56553U 23065BC  25059.17907476 -.00007483  00000+0 -53879-3 0  9990
2 56553  43.0032  97.9032 0001453 260.0719  99.9959 15.02580720 99363
STARLINK-6295           
1 56554U 23065BD  25059.11705299 -.00001230  00000+0 -75959-4 0  9992
2 56554  43.0039  98.3018 0001347 273.5881  86.4808 15.02544996 99359
STARLINK-6252           
1 56555U 23065BE  25059.17243186  .00000300  00000+0  37250-4 0  9998
2 56555  43.0043  97.8553 0001196 260.4845  99.5863 15.02535407 99364
STARLINK-5302           
1 56556U 23065BF  25059.17577493  .00004546  00000+0  35129-3 0  9998
2 56556  43.0032  97.8816 0001406 262.4787  97.5896 15.02542356 99361
STARLINK-6265           
1 56557U 23065BG  25059.16910063 -.00003116  00000+0 -21560-3 0  9990
2 56557  43.0044  97.8302 0001233 260.9015  99.1688 15.02549667 99369
STARLINK-6286           
1 56558U 23065BH  25058.39361901  .00000661  00000+0  65306-4 0  9993
2 56558  43.0020 102.3232 0001248 256.2895 103.7808 15.01723471100026
STARLINK-30122          
1 56688U 23067A   25058.62185568  .00001904  00000+0  15593-3 0  9991
2 56688  43.0018 152.9965 0001233 270.1730  89.8971 15.02554604 98389
STARLINK-30129          
1 56689U 23067B   25058.61186680  .00004158  00000+0  32257-3 0  9997
2 56689  43.0004 152.9286 0000963 255.0709 105.0027 15.02550470 98388
STARLINK-30124          
1 56690U 23067C   25058.60855332  .00001749  00000+0  14450-3 0  9993
2 56690  43.0015 152.9145 0001148 270.6183  89.4527 15.02533197 99233
STARLINK-30036          
1 56692U 23067E   25058.60189829 -.00002066  00000+0 -13791-3 0  9998
2 56692  43.0004 152.8830 0000651 223.8046 136.2745 15.02531948 98109
STARLINK-30067          
1 56693U 23067F   25058.52877865  .00002712  00000+0  21567-3 0  9990
2 56693  42.9962 153.1917 0000087 249.1458 110.9375 15.02541627 99229
STARLINK-30126          
1 56694U 23067G   25058.53208949 -.00002383  00000+0 -16139-3 0  9998
2 56694  43.0047 153.2202 0001625 273.3474  86.7182 15.02527578 99225
STARLINK-30121          
1 56695U 23067H   25058.91668981 -.00013762  00000+0 -10060-2 0  9996
2 56695  43.0021 151.0228 0001281 256.7772  62.1416 15.02525267  5820
STARLINK-30130          
1 56697U 23067K   25058.23288307 -.00000151  00000+0  38952-5 0  9993
2 56697  43.0014 154.4088 0000828 280.3122  79.7627 15.02534900 98928
STARLINK-30068          
1 56698U 23067L   25058.23979819  .00000448  00000+0  48236-4 0  9992
2 56698  43.0017 141.4700 0001625 246.4474 113.6198 15.02532562 99078
STARLINK-30127          
1 56699U 23067M   25058.65504040  .00001998  00000+0  16290-3 0  9994
2 56699  43.0019 152.4207 0001242 268.1544  91.9156 15.02552496 99248
STARLINK-30053          
1 56700U 23067N   25058.65173340 -.00000373  00000+0 -12592-4 0  9992
2 56700  42.9998 152.3939 0000908 252.3954 107.6789 15.02528183 99247
STARLINK-30125          
1 56701U 23067P   25058.31599902  .00002465  00000+0  19749-3 0  9994
2 56701  42.9986 154.1739 0000890 245.4392 114.6357 15.02536688 99194
STARLINK-30117          
1 56702U 23067Q   25058.55205738  .00008490  00000+0  64250-3 0  9993
2 56702  43.0014 153.2984 0001036 261.4347  98.6378 15.02551549 99223
STARLINK-30132          
1 56703U 23067R   25058.31267599  .00000426  00000+0  46627-4 0  9991
2 56703  43.0022 154.1441 0001547 277.7175  82.3492 15.02538523 99197
STARLINK-30066          
1 56704U 23067S   25058.55860048  .00001244  00000+0  10711-3 0  9999
2 56704  42.9994 152.5383 0000797 258.3413 101.7340 15.02545135 98382
STARLINK-30080          
1 56705U 23067T   25058.23649953 -.00000317  00000+0 -83804-5 0  9992
2 56705  43.0067 141.5127 0001697 263.4128  96.6522 15.02521669 99336
